{
  "type": "FeatureCollection",
  "features": [
    {
      "type": "Feature",
      "properties": {
        "norad_id": 27954,
        "name": "GALAXY 13 (HORIZONS-1)",
        "group": "intelsat",
        "lat": -0.10466858040308569,
        "lon": 78.82098910031137,
        "alt_km": 35794.934596289044,
        "timestamp": "2025-12-10T09:57:44.371796+00:00",
        "meta_object_name": "GALAXY 13 (HORIZONS-1)",
        "meta_object_id": "2003-044A",
        "meta_epoch": "2025-12-10T04:03:50.683104",
        "meta_mean_motion": 1.0027039,
        "meta_eccentricity": 0.0002026,
        "meta_inclination": 0.9288,
        "meta_ra_of_asc_node": 86.503,
        "meta_arg_of_pericenter": 163.435,
        "meta_mean_anomaly": 100.1733,
        "meta_ephemeris_type": 0,
        "meta_classification_type": "U",
        "meta_norad_cat_id": 27954,
        "meta_element_set_no": 999,
        "meta_rev_at_epoch": 4467,
        "meta_bstar": 0,
        "meta_mean_motion_dot": 1.36e-06,
        "meta_mean_motion_ddot": 0,
        "tle_line1": "1 27954U 03044A   25344.16933661  .00000136  00000+0  00000+0 0  9999",
        "tle_line2": "2 27954   0.9288  86.5030 0002026 163.4350 100.1733  1.00270390 44678"
      },
      "geometry": {
        "type": "Point",
        "coordinates": [
          78.82098910031137,
          -0.10466858040308569
        ]
      }
    },
    {
      "type": "Feature",
      "properties": {
        "norad_id": 28358,
        "name": "INTELSAT 10-02",
        "group": "intelsat",
        "lat": -0.005899847769048654,
        "lon": -132.12253582190783,
        "alt_km": 35771.327101478084,
        "timestamp": "2025-12-10T09:57:44.371808+00:00",
        "meta_object_name": "INTELSAT 10-02",
        "meta_object_id": "2004-022A",
        "meta_epoch": "2025-12-09T23:46:38.709120",
        "meta_mean_motion": 1.00289796,
        "meta_eccentricity": 0.0002399,
        "meta_inclination": 0.028,
        "meta_ra_of_asc_node": 69.1558,
        "meta_arg_of_pericenter": 175.9009,
        "meta_mean_anomaly": 189.6126,
        "meta_ephemeris_type": 0,
        "meta_classification_type": "U",
        "meta_norad_cat_id": 28358,
        "meta_element_set_no": 999,
        "meta_rev_at_epoch": 7865,
        "meta_bstar": 0,
        "meta_mean_motion_dot": -4e-08,
        "meta_mean_motion_ddot": 0,
        "tle_line1": "1 28358U 04022A   25343.99072580 -.00000004  00000+0  00000+0 0  9994",
        "tle_line2": "2 28358   0.0280  69.1558 0002399 175.9009 189.6126  1.00289796 78657"
      },
      "geometry": {
        "type": "Point",
        "coordinates": [
          -132.12253582190783,
          -0.005899847769048654
        ]
      }
    },
    {
      "type": "Feature",
      "properties": {
        "norad_id": 28626,
        "name": "XM-3 (RHYTHM)",
        "group": "intelsat",
        "lat": -0.16299372186442457,
        "lon": -5.813754595033387,
        "alt_km": 36154.04849707261,
        "timestamp": "2025-12-10T09:57:44.371821+00:00",
        "meta_object_name": "XM-3 (RHYTHM)",
        "meta_object_id": "2005-008A",
        "meta_epoch": "2025-12-09T14:54:38.529792",
        "meta_mean_motion": 0.98953659,
        "meta_eccentricity": 0.0001381,
        "meta_inclination": 0.1668,
        "meta_ra_of_asc_node": 81.2156,
        "meta_arg_of_pericenter": 264.7021,
        "meta_mean_anomaly": 85.4801,
        "meta_ephemeris_type": 0,
        "meta_classification_type": "U",
        "meta_norad_cat_id": 28626,
        "meta_element_set_no": 999,
        "meta_rev_at_epoch": 4071,
        "meta_bstar": 0,
        "meta_mean_motion_dot": -2.36e-06,
        "meta_mean_motion_ddot": 0,
        "tle_line1": "1 28626U 05008A   25343.62127928 -.00000236  00000+0  00000+0 0  9991",
        "tle_line2": "2 28626   0.1668  81.2156 0001381 264.7021  85.4801  0.98953659 40717"
      },
      "geometry": {
        "type": "Point",
        "coordinates": [
          -5.813754595033387,
          -0.16299372186442457
        ]
      }
    },
    {
      "type": "Feature",
      "properties": {
        "norad_id": 28659,
        "name": "DIRECTV 8",
        "group": "intelsat",
        "lat": 0.032149311350328294,
        "lon": 109.76363371076047,
        "alt_km": 35797.98841152103,
        "timestamp": "2025-12-10T09:57:44.371833+00:00",
        "meta_object_name": "DIRECTV 8",
        "meta_object_id": "2005-019A",
        "meta_epoch": "2025-12-09T14:43:08.593824",
        "meta_mean_motion": 1.00271975,
        "meta_eccentricity": 0.0003178,
        "meta_inclination": 0.0169,
        "meta_ra_of_asc_node": 7.3328,
        "meta_arg_of_pericenter": 255.58,
        "meta_mean_anomaly": 277.4302,
        "meta_ephemeris_type": 0,
        "meta_classification_type": "U",
        "meta_norad_cat_id": 28659,
        "meta_element_set_no": 999,
        "meta_rev_at_epoch": 7517,
        "meta_bstar": 0,
        "meta_mean_motion_dot": 3e-08,
        "meta_mean_motion_ddot": 0,
        "tle_line1": "1 28659U 05019A   25343.61329391  .00000003  00000+0  00000+0 0  9997",
        "tle_line2": "2 28659   0.0169   7.3328 0003178 255.5800 277.4302  1.00271975 75172"
      },
      "geometry": {
        "type": "Point",
        "coordinates": [
          109.76363371076047,
          0.032149311350328294
        ]
      }
    },
    {
      "type": "Feature",
      "properties": {
        "norad_id": 28702,
        "name": "GALAXY 28 (G-28)",
        "group": "intelsat",
        "lat": 2.4146389819968506,
        "lon": 140.08227499292443,
        "alt_km": 35791.87429950096,
        "timestamp": "2025-12-10T09:57:44.371845+00:00",
        "meta_object_name": "GALAXY 28 (G-28)",
        "meta_object_id": "2005-022A",
        "meta_epoch": "2025-12-09T12:29:48.392736",
        "meta_mean_motion": 1.00271081,
        "meta_eccentricity": 0.00026859,
        "meta_inclination": 2.8104,
        "meta_ra_of_asc_node": 81.3192,
        "meta_arg_of_pericenter": 179.8142,
        "meta_mean_anomaly": 276.1436,
        "meta_ephemeris_type": 0,
        "meta_classification_type": "U",
        "meta_norad_cat_id": 28702,
        "meta_element_set_no": 999,
        "meta_rev_at_epoch": 5007,
        "meta_bstar": 0,
        "meta_mean_motion_dot": -1.85e-06,
        "meta_mean_motion_ddot": 0,
        "tle_line1": "1 28702U 05022A   25343.52069899 -.00000185  00000+0  00000+0 0  9996",
        "tle_line2": "2 28702   2.8104  81.3192 0002685 179.8142 276.1436  1.00271081 50074"
      },
      "geometry": {
        "type": "Point",
        "coordinates": [
          140.08227499292443,
          2.4146389819968506
        ]
      }
    },
    {
      "type": "Feature",
      "properties": {
        "norad_id": 29236,
        "name": "GALAXY 16 (G-16)",
        "group": "intelsat",
        "lat": 0.005203245910222879,
        "lon": 129.78660496075628,
        "alt_km": 35792.60547067039,
        "timestamp": "2025-12-10T09:57:44.371857+00:00",
        "meta_object_name": "GALAXY 16 (G-16)",
        "meta_object_id": "2006-023A",
        "meta_epoch": "2025-12-10T04:31:38.802720",
        "meta_mean_motion": 1.00272193,
        "meta_eccentricity": 0.0002782,
        "meta_inclination": 0.0413,
        "meta_ra_of_asc_node": 154.4032,
        "meta_arg_of_pericenter": 99.6092,
        "meta_mean_anomaly": 154.0571,
        "meta_ephemeris_type": 0,
        "meta_classification_type": "U",
        "meta_norad_cat_id": 29236,
        "meta_element_set_no": 999,
        "meta_rev_at_epoch": 7107,
        "meta_bstar": 0,
        "meta_mean_motion_dot": -1.23e-06,
        "meta_mean_motion_ddot": 0,
        "tle_line1": "1 29236U 06023A   25344.18864355 -.00000123  00000+0  00000+0 0  9996",
        "tle_line2": "2 29236   0.0413 154.4032 0002782  99.6092 154.0571  1.00272193 71078"
      },
      "geometry": {
        "type": "Point",
        "coordinates": [
          129.78660496075628,
          0.005203245910222879
        ]
      }
    },
    {
      "type": "Feature",
      "properties": {
        "norad_id": 29494,
        "name": "DIRECTV 9S",
        "group": "intelsat",
        "lat": 1.3640939236930616,
        "lon": 127.56511456326913,
        "alt_km": 35795.53445677324,
        "timestamp": "2025-12-10T09:57:44.371874+00:00",
        "meta_object_name": "DIRECTV 9S",
        "meta_object_id": "2006-043A",
        "meta_epoch": "2025-12-10T04:31:38.802720",
        "meta_mean_motion": 1.00270776,
        "meta_eccentricity": 0.0003126,
        "meta_inclination": 1.9339,
        "meta_ra_of_asc_node": 83.2331,
        "meta_arg_of_pericenter": 179.2716,
        "meta_mean_anomaly": 143.3579,
        "meta_ephemeris_type": 0,
        "meta_classification_type": "U",
        "meta_norad_cat_id": 29494,
        "meta_element_set_no": 999,
        "meta_rev_at_epoch": 4948,
        "meta_bstar": 0,
        "meta_mean_motion_dot": -1.1e-06,
        "meta_mean_motion_ddot": 0,
        "tle_line1": "1 29494U 06043A   25344.18864355 -.00000110  00000+0  00000+0 0  9990",
        "tle_line2": "2 29494   1.9339  83.2331 0003126 179.2716 143.3579  1.00270776 49487"
      },
      "geometry": {
        "type": "Point",
        "coordinates": [
          127.56511456326913,
          1.3640939236930616
        ]
      }
    }
  ]
}